0 GALILEO-PFM
1 37846U 11060A   13283.00154601  .00000008  00000-0  10000-3 0  2771
2 37846 054.9463 109.5855 0001041 317.7435 042.3083 01.70476646 12262
0 GALILEO-PFM
1 37846U 11060A   13283.75933148  .00000048  00000-0  00000+0 0  2773
2 37846 054.9513 109.5648 0000691 278.1427 186.9680 01.70474429 12275
0 GALILEO-PFM
1 37846U 11060A   13285.83374330  .00000051  00000-0  00000+0 0  2781
2 37846 054.9523 109.5065 0000687 278.5867 019.6401 01.70474515 12309
0 GALILEO-PFM
1 37846U 11060A   13288.27671887  .00000051  00000-0  00000+0 0  2790
2 37846 054.9535 109.4379 0000698 279.0324 078.5081 01.70474596 12346
0 GALILEO-PFM
1 37846U 11060A   13290.56664976  .00000040  00000-0  00000+0 0  2806
2 37846 054.9547 109.3735 0000702 277.7964 045.1321 01.70474632 12387
0 GALILEO-PFM
1 37846U 11060A   13290.62715734  .00000011  00000-0  10000-3 0  2816
2 37846 054.9225 109.3714 0001090 082.8010 277.2641 01.70476198 12398
0 GALILEO-PFM
1 37846U 11060A   13292.86458534  .00000028  00000-0  00000+0 0  2819
2 37846 054.9559 109.3090 0000694 275.0299 018.2007 01.70474625 12425
0 GALILEO-PFM
1 37846U 11060A   13295.30748656  .00000029  00000-0  00000+0 0  2820
2 37846 054.9573 109.2404 0000720 270.6284 081.8746 01.70474557 12468
